{
  "norad_id": 67677,
  "name": "COSMOS 2603",
  "history": [
    {
      "epoch": "2026-04-30T16:12:57.683232Z",
      "apogee_km": 505.8269630072955,
      "perigee_km": 482.47218431536385,
      "latitude_deg": -2.0858185072402688e-05,
      "longitude_deg": 85.80815124427691,
      "height_km": 490.11353606440923,
      "semi_major_axis_km": 6872.286573661329,
      "eccentricity": 0.0016992,
      "inclination_deg": 96.6345,
      "raan_deg": 187.6675,
      "arg_perigee_deg": 307.8087,
      "mean_anomaly_deg": 52.1613,
      "mean_motion_rev_day": 15.23880354
    }
  ]
}